NORAD_CAT_ID,OBJECT_NAME,OBJECT_TYPE,EPOCH,MEAN_MOTION,ECCENTRICITY,INCLINATION,RA_OF_ASC_NODE,ARG_OF_PERICENTER,MEAN_ANOMALY,BSTAR,MEAN_MOTION_DOT,MEAN_MOTION_DDOT,TLE_LINE0,TLE_LINE1,TLE_LINE2,SEMIMAJOR_AXIS,PERIOD,APOGEE,PERIGEE,DECAYED
49154.0,STARLINK-3068,PAYLOAD,2022-04-30 06:00:00,14.96700972,0.0003471,70.0008,227.3962,272.7286,195.3266,0.0048299,0.00055613,0.0,0 STARLINK-3068,1 49154U 21082AA  22120.25001157  .00055613  00000-0  48299-2 0  9998,2 49154  70.0008 227.3962 0003471 272.7286 195.3266 14.96700972 36444,6955.235,96.212,579.514,574.686,0.0
49154.0,STARLINK-3068,PAYLOAD,2022-04-30 14:00:01,14.96734681,0.0003487,70.0008,226.558,277.2975,186.30900000000003,-0.0028672,-0.00032773,0.0,0 STARLINK-3068,1 49154U 21082AA  22120.58334491 -.00032773  00000-0 -28672-2 0  9991,2 49154  70.0008 226.5580 0003487 277.2975 186.3090 14.96734681  3558,6955.130999999999,96.209,579.4209999999998,574.57,0.0
49154.0,STARLINK-3068,PAYLOAD,2022-04-30 22:00:00,14.96736956,0.0003376,70.0006,225.7195,278.0378,181.1207,-0.0070039,-0.00079399,0.0,0 STARLINK-3068,1 49154U 21082AA  22120.91667824 -.00079399  00000-0 -70039-2 0  9996,2 49154  70.0006 225.7195 0003376 278.0378 181.1207 14.96736956 36547,6955.124,96.209,579.337,574.641,0.0
49154.0,STARLINK-3068,PAYLOAD,2022-05-01 12:00:00,14.96702828,0.0003408,70.001,224.2526,275.8786,85.4437,-0.0015319,-0.00017576,0.0,0 STARLINK-3068,1 49154U 21082AA  22121.50001157 -.00017576  00000-0 -15319-2 0  9992,2 49154  70.0010 224.2526 0003408 275.8786  85.4437 14.96702828 36630,6955.229,96.211,579.465,574.724,0.0
49154.0,STARLINK-3068,PAYLOAD,2022-05-01 14:00:01,14.96687399,0.0003391,70.0009,224.0431,277.5515,172.6567,0.0012097,0.00013772,0.0,0 STARLINK-3068,1 49154U 21082AA  22121.58334491  .00013772  00000-0  12097-2 0  9992,2 49154  70.0009 224.0431 0003391 277.5515 172.6567 14.96687399  3565,6955.276999999999,96.212,579.501,574.784,0.0
49154.0,STARLINK-3068,PAYLOAD,2022-05-01 22:00:01,14.96724561,0.0003362,70.0006,223.2047,277.6495,168.1386,-0.0036432,-0.00041554,0.0,0 STARLINK-3068,1 49154U 21082AA  22121.91668981 -.00041554  00000-0 -36432-2 0  9993,2 49154  70.0006 223.2047 0003362 277.6495 168.1386 14.96724561  3597,6955.1619999999975,96.21,579.365,574.689,0.0
49154.0,STARLINK-3068,PAYLOAD,2022-05-02 06:00:00,14.96700766,0.0003381,70.0009,222.3666,272.8102,168.4499,0.0031471,0.00036103,0.0,0 STARLINK-3068,1 49154U 21082AA  22122.25001157  .00036103  00000-0  31471-2 0  9997,2 49154  70.0009 222.3666 0003381 272.8102 168.4499 14.96700766 36742,6955.236,96.212,579.452,574.749,0.0
49154.0,STARLINK-3068,PAYLOAD,2022-05-02 14:00:01,14.96704564,0.0003422,70.0008,221.5284,278.0344,158.7719,0.001496,0.00017069,0.0,0 STARLINK-3068,1 49154U 21082AA  22122.58334491  .00017069  00000-0  14960-2 0  9997,2 49154  70.0008 221.5284 0003422 278.0344 158.7719 14.96704564  3594,6955.224,96.211,579.469,574.7090000000002,0.0
49154.0,STARLINK-3068,PAYLOAD,2022-05-02 22:00:01,14.96741192,0.0003366,70.0003,220.6901,277.7175,154.6906,-0.0038696,-0.00044134,0.0,0 STARLINK-3068,1 49154U 21082AA  22122.91668981 -.00044134  00000-0 -38696-2 0  9995,2 49154  70.0003 220.6901 0003366 277.7175 154.6906 14.96741192 36845,6955.11,96.209,579.317,574.634,0.0
49154.0,STARLINK-3068,PAYLOAD,2022-05-03 14:00:01,14.96723274,0.0003407,70.0005,219.0135,278.5998,144.866,0.0010172,0.00011573,0.0,0 STARLINK-3068,1 49154U 21082AA  22123.58334491  .00011573  00000-0  10172-2 0  9993,2 49154  70.0005 219.0135 0003407 278.5998 144.8660 14.96723274 36946,6955.166,96.21,579.401,574.661,0.0
49154.0,STARLINK-3068,PAYLOAD,2022-05-03 22:00:00,14.96749644,0.0003302,70.0,218.1752,277.7507,141.2778,-0.0065546,-0.00074388,0.0,0 STARLINK-3068,1 49154U 21082AA  22123.91667824 -.00074388  00000-0 -65546-2 0  9999,2 49154  70.0000 218.1752 0003302 277.7507 141.2778 14.96749644  3581,6955.084,96.208,579.246,574.653,0.0
49154.0,STARLINK-3068,PAYLOAD,2022-05-04 06:00:02,14.96712951,0.0003276,70.0002,217.3368,272.8752,141.7691,0.0022632,0.00025907,0.0,0 STARLINK-3068,1 49154U 21082AA  22124.25002315  .00025907  00000-0  22632-2 0  9995,2 49154  70.0002 217.3368 0003276 272.8752 141.7691 14.96712951 37043,6955.198,96.211,579.342,574.784,0.0
49154.0,STARLINK-3068,PAYLOAD,2022-05-04 14:00:01,14.96712654,0.0003342,70.0002,216.4985,278.3531,131.7873,0.0018947,0.00021661,0.0,0 STARLINK-3068,1 49154U 21082AA  22124.58334491  .00021661  00000-0  18947-2 0  9991,2 49154  70.0002 216.4985 0003342 278.3531 131.7873 14.96712654  3581,6955.199000000001,96.211,579.388,574.739,0.0
49154.0,STARLINK-3068,PAYLOAD,2022-05-04 20:00:01,14.96755042,0.0003354,69.9997,215.8696,278.358,38.5022,-0.0047427,-0.00054014,0.0,0 STARLINK-3068,1 49154U 21082AA  22124.83335648 -.00054014  00000-0 -47427-2 0  9999,2 49154  69.9997 215.8696 0003354 278.3580  38.5022 14.96755042 37136,6955.068,96.208,579.265,574.6,0.0
49154.0,STARLINK-3068,PAYLOAD,2022-05-04 22:00:01,14.96757007,0.0003304,69.9997,215.66,277.1181,128.6352,-0.0064423999999999,-0.00073143,0.0,0 STARLINK-3068,1 49154U 21082AA  22124.91668981 -.00073143  00000-0 -64424-2 0  9997,2 49154  69.9997 215.6600 0003304 277.1181 128.6352 14.96757007  3603,6955.062,96.208,579.224,574.629,0.0
49154.0,STARLINK-3068,PAYLOAD,2022-05-05 14:00:01,14.96707235,0.0003306,69.9999,213.9834,277.8331,118.9751,0.0014583,0.00016636,0.0,0 STARLINK-3068,1 49154U 21082AA  22125.58334491  .00016636  00000-0  14583-2 0  9990,2 49154  69.9999 213.9834 0003306 277.8331 118.9751 14.96707235 37241,6955.215999999999,96.211,579.38,574.781,0.0
49154.0,STARLINK-3068,PAYLOAD,2022-05-05 22:00:00,14.96735226,0.0003337,69.9995,213.1449,276.0872,116.2635,-0.0032409,-0.0003701,0.0,0 STARLINK-3068,1 49154U 21082AA  22125.91667824 -.00037010  00000-0 -32409-2 0  9994,2 49154  69.9995 213.1449 0003337 276.0872 116.2635 14.96735226  3589,6955.129,96.209,579.315,574.673,0.0
49154.0,STARLINK-3068,PAYLOAD,2022-05-06 14:00:01,14.96689706,0.0003294,69.9998,211.4683,277.7733,105.6926,0.0023242,0.00026595,0.0,0 STARLINK-3068,1 49154U 21082AA  22126.58334491  .00026595  00000-0  23242-2 0  9998,2 49154  69.9998 211.4683 0003294 277.7733 105.6926 14.96689706 37391,6955.27,96.212,579.4259999999998,574.844,0.0
49154.0,STARLINK-3068,PAYLOAD,2022-05-07 14:00:01,14.96700061,0.0003337,69.9997,208.9534,278.0785,92.0011,0.0027887,0.00031961,0.0,0 STARLINK-3068,1 49154U 21082AA  22127.58334491  .00031961  00000-0  27887-2 0  9991,2 49154  69.9997 208.9534 0003337 278.0785  92.0011 14.96700061 37544,6955.238,96.212,579.424,574.7819999999998,0.0
49154.0,STARLINK-3068,PAYLOAD,2022-05-07 22:00:00,14.96731636,0.000329,69.9995,208.1151,276.1607,89.4642,-0.0025381,-0.00029034,0.0,0 STARLINK-3068,1 49154U 21082AA  22127.91667824 -.00029034  00000-0 -25381-2 0  9994,2 49154  69.9995 208.1151 0003290 276.1607  89.4642 14.96731636  3588,6955.14,96.21,579.293,574.717,0.0
49154.0,STARLINK-3068,PAYLOAD,2022-05-08 06:00:00,14.96737258,0.0003322,69.9999,207.2769,272.5461,88.6247,-0.00018207,-2.176e-05,0.0,0 STARLINK-3068,1 49154U 21082AA  22128.25001157 -.00002176  00000-0 -18207-3 0  9991,2 49154  69.9999 207.2769 0003322 272.5461  88.6247 14.96737258 37643,6955.123000000001,96.209,579.298,574.677,0.0
49154.0,STARLINK-3068,PAYLOAD,2022-05-08 14:00:01,14.96723571,0.0003295,69.9998,206.4385,278.8897,77.8547,-0.00079789,-9.214e-05,0.0,0 STARLINK-3068,1 49154U 21082AA  22128.58334491 -.00009214  00000-0 -79789-3 0  9999,2 49154  69.9998 206.4385 0003295 278.8897  77.8547 14.96723571  3579,6955.165,96.21,579.322,574.738,0.0
49154.0,STARLINK-3068,PAYLOAD,2022-05-08 22:00:00,14.96713895,0.000317,69.9995,205.6002,276.5363,75.7676,-0.0020908,-0.0002394,0.0,0 STARLINK-3068,1 49154U 21082AA  22128.91667824 -.00023940  00000-0 -20908-2 0  9995,2 49154  69.9995 205.6002 0003170 276.5363  75.7676 14.96713895 37742,6955.195,96.211,579.265,574.855,0.0
49154.0,STARLINK-3068,PAYLOAD,2022-05-09 14:00:01,14.96700463,0.0003238,70.0,203.9234,278.9916,64.4637,0.0031145,0.00035726,0.0,0 STARLINK-3068,1 49154U 21082AA  22129.58335648  .00035726  00000-0  31145-2 0  9993,2 49154  70.0000 203.9234 0003238 278.9916  64.4637 14.96700463 37845,6955.236999999999,96.212,579.354,574.85,0.0
49154.0,STARLINK-3068,PAYLOAD,2022-05-09 22:00:00,14.96725954,0.0003222,69.9997,203.085,275.9715,62.9721,-0.0014155,-0.0001626,0.0,0 STARLINK-3068,1 49154U 21082AA  22129.91667824 -.00016260  00000-0 -14155-2 0  9990,2 49154  69.9997 203.0850 0003222 275.9715  62.9721 14.96725954  3571,6955.158,96.21,579.264,574.7819999999998,0.0
49154.0,STARLINK-3068,PAYLOAD,2022-05-10 06:00:00,14.96753975,0.0003317,70.0001,202.2467,272.1639,62.3225,-0.0041942,-0.00047819,0.0,0 STARLINK-3068,1 49154U 21082AA  22130.25001157 -.00047819  00000-0 -41942-2 0  9998,2 49154  70.0001 202.2467 0003317 272.1639  62.3225 14.96753975 37949,6955.071,96.208,579.243,574.629,0.0
49154.0,STARLINK-3068,PAYLOAD,2022-05-10 14:00:01,14.96687224,0.0003432,70.0001,201.4082,277.7871,52.2774,0.003093,0.00035465,0.0,0 STARLINK-3068,1 49154U 21082AA  22130.58334491  .00035465  00000-0  30930-2 0  9991,2 49154  70.0001 201.4082 0003432 277.7871  52.2774 14.96687224  3572,6955.278,96.212,579.53,574.756,0.0
49154.0,STARLINK-3068,PAYLOAD,2022-05-10 18:00:00,14.96719244,0.0003455,69.9997,200.989,277.6478,230.1728,-0.0020089,-0.00023012,0.0,0 STARLINK-3068,1 49154U 21082AA  22130.75001157 -.00023012  00000-0 -20089-2 0  9991,2 49154  69.9997 200.9890 0003455 277.6478 230.1728 14.96719244  3575,6955.178000000001,96.21,579.447,574.64,0.0
49154.0,STARLINK-3068,PAYLOAD,2022-05-11 22:00:00,14.96715755,0.000353,70.0002,198.0546,274.0905,38.1376,-0.00025181,-2.973e-05,0.0,0 STARLINK-3068,1 49154U 21082AA  22131.91667824 -.00002973  00000-0 -25181-3 0  9991,2 49154  70.0002 198.0546 0003530 274.0905  38.1376 14.96715755 38194,6955.189,96.211,579.509,574.599,0.0
